[{"OBJECT_NAME":"YAOGAN-43 01G","OBJECT_ID":"2024-148G","EPOCH":"2026-03-09T10:38:37.087584","MEAN_MOTION":15.28332833,"ECCENTRICITY":0.00073829,"INCLINATION":35.0006,"RA_OF_ASC_NODE":62.0013,"ARG_OF_PERICENTER":306.3543,"MEAN_ANOMALY":53.6492,"EPHEMERIS_TYPE":0,"CLASSIFICATION_TYPE":"U","NORAD_CAT_ID":60464,"ELEMENT_SET_NO":999,"REV_AT_EPOCH":8700,"BSTAR":0.00035872736,"MEAN_MOTION_DOT":0.00010133,"MEAN_MOTION_DDOT":0},{"OBJECT_NAME":"STARLINK-32822","OBJECT_ID":"2025-022Q","EPOCH":"2026-03-09T10:55:54.958080","MEAN_MOTION":15.30183838,"ECCENTRICITY":0.00012898,"INCLINATION":53.1576,"RA_OF_ASC_NODE":130.749,"ARG_OF_PERICENTER":74.9988,"MEAN_ANOMALY":285.1156,"EPHEMERIS_TYPE":0,"CLASSIFICATION_TYPE":"U","NORAD_CAT_ID":62868,"ELEMENT_SET_NO":999,"REV_AT_EPOCH":6186,"BSTAR":0.00051600389,"MEAN_MOTION_DOT":0.00014947,"MEAN_MOTION_DDOT":0}]
