YAOGAN-43 01G           
1 60464U 24148G   26068.44348481  .00010133  00000+0  35873-3 0  9993
2 60464  35.0006  62.0013 0007382 306.3543  53.6492 15.28332833 87004
STARLINK-32822          
1 62868U 25022Q   26068.45549720  .00014947  00000+0  51600-3 0  9998
2 62868  53.1576 130.7490 0001289  74.9988 285.1156 15.30183838 61867
